{
    "links": {
        "self": "http://www.neowsapp.com/rest/v1/neo/54017540?api_key=iIulBulltgU6a56xZRHN4H3l9WmuAYTsLGpBGhQ2"
    },
    "id": "54017540",
    "neo_reference_id": "54017540",
    "name": "(2020 LC2)",
    "designation": "2020 LC2",
    "nasa_jpl_url": "http://ssd.jpl.nasa.gov/sbdb.cgi?sstr=54017540",
    "absolute_magnitude_h": 20.928,
    "estimated_diameter": {
        "kilometers": {
            "estimated_diameter_min": 0.1733624263,
            "estimated_diameter_max": 0.38765017
        },
        "meters": {
            "estimated_diameter_min": 173.3624263274,
            "estimated_diameter_max": 387.6501700123
        },
        "miles": {
            "estimated_diameter_min": 0.1077223842,
            "estimated_diameter_max": 0.2408745738
        },
        "feet": {
            "estimated_diameter_min": 568.7743827919,
            "estimated_diameter_max": 1271.8181837831
        }
    },
    "is_potentially_hazardous_asteroid": false,
    "close_approach_data": [
        {
            "close_approach_date": "2020-05-29",
            "close_approach_date_full": "2020-May-29 04:56",
            "epoch_date_close_approach": 1590728160000,
            "relative_velocity": {
                "kilometers_per_second": "21.5056276926",
                "kilometers_per_hour": "77420.2596931919",
                "miles_per_hour": "48105.9385854725"
            },
            "miss_distance": {
                "astronomical": "0.3875215779",
                "lunar": "150.7458938031",
                "kilometers": "57972402.632879073",
                "miles": "36022380.6160862874"
            },
            "orbiting_body": "Earth"
        }
    ],
    "orbital_data": {
        "orbit_id": "1",
        "orbit_determination_date": "2020-06-20 12:12:16",
        "first_observation_date": "2020-06-08",
        "last_observation_date": "2020-06-17",
        "data_arc_in_days": 9,
        "observations_used": 11,
        "orbit_uncertainty": "9",
        "minimum_orbit_intersection": ".148294",
        "jupiter_tisserand_invariant": "2.898",
        "epoch_osculation": "2459017.5",
        "eccentricity": ".6328721688962186",
        "semi_major_axis": "2.88678053146044",
        "inclination": "18.18711981566198",
        "ascending_node_longitude": "250.0217102292166",
        "orbital_period": "1791.509347365671",
        "perihelion_distance": "1.059817475387693",
        "perihelion_argument": "49.34708581656942",
        "aphelion_distance": "4.713743587533188",
        "perihelion_time": "2459026.794457503333",
        "mean_anomaly": "358.1322984967285",
        "mean_motion": ".2009478770118408",
        "equinox": "J2000",
        "orbit_class": {
            "orbit_class_type": "AMO",
            "orbit_class_description": "Near-Earth asteroid orbits similar to that of 1221 Amor",
            "orbit_class_range": "1.017 AU < q (perihelion) < 1.3 AU"
        }
    },
    "is_sentry_object": false
}